[{"OBJECT_NAME":"GAOFEN-9 05","OBJECT_ID":"2020-058A","EPOCH":"2026-03-10T00:01:50.876256","MEAN_MOTION":15.30293976,"ECCENTRICITY":0.0010522,"INCLINATION":97.2228,"RA_OF_ASC_NODE":111.963,"ARG_OF_PERICENTER":91.0204,"MEAN_ANOMALY":269.2242,"EPHEMERIS_TYPE":0,"CLASSIFICATION_TYPE":"U","NORAD_CAT_ID":46232,"ELEMENT_SET_NO":999,"REV_AT_EPOCH":30843,"BSTAR":0.00025120304,"MEAN_MOTION_DOT":7.299e-5,"MEAN_MOTION_DDOT":0},{"OBJECT_NAME":"STARLINK-34486","OBJECT_ID":"2025-137D","EPOCH":"2026-03-09T23:30:47.140992","MEAN_MOTION":15.30200925,"ECCENTRICITY":0.00014257,"INCLINATION":53.1606,"RA_OF_ASC_NODE":334.2903,"ARG_OF_PERICENTER":124.0727,"MEAN_ANOMALY":236.0409,"EPHEMERIS_TYPE":0,"CLASSIFICATION_TYPE":"U","NORAD_CAT_ID":64597,"ELEMENT_SET_NO":999,"REV_AT_EPOCH":4077,"BSTAR":0.00058700101,"MEAN_MOTION_DOT":0.00017067,"MEAN_MOTION_DDOT":0}]
